COSMOS 2058             
1 20465U 90010A   26169.45904499  .00003365  00000+0  19409-3 0  9997
2 20465  82.4688 308.1002 0009031 355.7007   4.4144 15.12022705957462
SL-14 R/B               
1 20466U 90010B   26169.44928222  .00000290  00000+0  32185-4 0  9998
2 20466  82.5015 172.7596 0018985 331.9920  28.0271 14.83646933943425
SL-14 R/B               
1 20511U 90018B   26169.63159358  .00000314  00000+0  36317-4 0  9992
2 20511  82.5210 128.7574 0017520 117.3177 242.9824 14.82216917937534
HST                     
1 20580U 90037B   26169.12115247  .00005032  00000+0  15694-3 0  9998
2 20580  28.4721  74.1921 0001766 152.2420 207.8270 15.30755230788719
SL-16 R/B               
1 20625U 90046B   26169.50337521  .00000063  00000+0  57288-4 0  9996
2 20625  71.0000  86.1837 0013239 159.7904 200.3745 14.15027010862650
COSMOS 2084             
1 20663U 90055A   26169.52214789  .00001629  00000+0  12460-3 0  9991
2 20663  62.7899 351.5342 0005613 281.0237  79.0232 15.06120674951506
SL-6 R/B(2)             
1 20666U 90055D   26169.57852199  .00001167  00000+0  97372-4 0  9995
2 20666  62.7823 270.6419 0040879   5.3426 354.8101 15.04006872953368
SL-8 R/B                
1 20775U 90078B   26169.40192146  .00020100  00000+0  56675-3 0  9990
2 20775  82.9020 160.5479 0350609  34.3823 327.9549 14.92370364824307
SL-8 R/B                
1 21088U 91006B   26169.53854700  .00000060  00000+0  44529-4 0  9994
2 21088  82.9425  95.0284 0023746 110.9723  61.7767 13.77505940777954
OKEAN-3                 
1 21397U 91039A   26169.46807323  .00002368  00000+0  16322-3 0  9996
2 21397  82.5162 239.1393 0013955 353.3724   6.7316 15.05329907880198
COSMOS 2151             
1 21422U 91042A   26169.59356920  .00001083  00000+0  83833-4 0  9990
2 21422  82.4960 346.3235 0013787  79.8386 280.4393 15.00441554878321
SL-14 R/B               
1 21423U 91042B   26169.30081062  .00000301  00000+0  35115-4 0  9994
2 21423  82.4927 125.8512 0015405 270.8043  89.1406 14.81903087867975
ERS-1                   
1 21574U 91050A   26169.34644046  .00000172  00000+0  69673-4 0  9993
2 21574  98.7797 190.0728 0030701 263.3862  96.3830 14.39517965830219
ARIANE 40 R/B           
1 21610U 91050F   26169.36653455  .00000219  00000+0  77756-4 0  9993
2 21610  98.1875 217.7375 0004282 119.1814 240.9806 14.42957718833510
INTERCOSMOS 25          
1 21819U 91086A   26169.59745154  .00000757  00000+0  15095-3 0  9990
2 21819  82.6052 248.9564 1483977 259.3492  83.7618 12.12197485508913
SL-8 R/B                
1 21876U 92008B   26169.35182648  .00000131  00000+0  11897-3 0  9997
2 21876  82.9261 192.9216 0033911 211.3603 159.2715 13.75977264723268
SL-8 R/B                
1 21938U 92020B   26169.53156275  .00000082  00000+0  69336-4 0  9994
2 21938  82.9305  78.8589 0029641  18.9065 154.6358 13.75549013714998
USA 81                  
1 21949U 92023A   26169.46240624  .00000147  00000+0  46931-4 0  9991
2 21949  85.0074  73.2715 0002759  83.6176 276.5331 14.32398511109217
COSMOS 2219             
1 22219U 92076A   26169.39316051  .00000303  00000+0  18387-3 0  9997
2 22219  71.0580 167.5506 0016657  42.1352 318.1048 14.14099867732614
SL-16 R/B               
1 22220U 92076B   26169.43536084  .00000242  00000+0  14430-3 0  9991
2 22220  71.0006 336.1516 0014693 297.0200  90.8573 14.16872867736101
COSMOS 2221             
1 22236U 92080A   26169.47627128  .00001105  00000+0  94773-4 0  9995
2 22236  82.5029 182.5295 0013374 207.6546 152.3966 14.96535990795861
SL-16 R/B               
1 22285U 92093B   26169.37315380 -.00000265  00000+0 -11118-3 0  9995
2 22285  71.0196 152.9014 0003884 186.2686 173.8389 14.15460672727402
COSMOS 2228             
1 22286U 92094A   26169.55762947  .00001557  00000+0  13072-3 0  9996
2 22286  82.5174 140.7300 0016785 327.5191  32.4998 14.97590746791159
SL-16 R/B               
1 22566U 93016B   26168.99997628  .00000223  00000+0  13872-3 0  9992
2 22566  71.0084   4.5000 0010162 182.3697 177.7380 14.15314648716361
COSMOS 2242             
1 22626U 93024A   26169.45085274  .00001319  00000+0  11245-3 0  9994
2 22626  82.5179 170.3338 0015249 331.8153  28.2242 14.96906839795468
SL-16 R/B               
1 22803U 93059B   26169.40745614 -.00000138  00000+0 -44562-4 0  9994
2 22803  70.9886 158.7303 0015265  51.9101 308.3397 14.17248212693809
ARIANE 40 R/B           
1 22830U 93061H   26169.60195966  .00000131  00000+0  63840-4 0  9999
2 22830  98.4819 236.4296 0010363 352.0025   8.0992 14.32908421708555
COSMOS 2278             
1 23087U 94023A   26168.88341831  .00000065  00000+0  58811-4 0  9994
2 23087  71.0548 325.4675 0010623 242.3414 117.6631 14.14398380658972
SL-16 R/B               
1 23088U 94023B   26169.59178892  .00000196  00000+0  12570-3 0  9995
2 23088  70.9993 218.9816 0002667 185.9404 174.1687 14.15026139660364
SL-16 R/B               
1 23343U 94074B   26169.51961132  .00000315  00000+0  48744-4 0  9990
2 23343  97.6990 196.1851 0005166 247.9938 277.7992 14.79503361702155
