OBJECT_NAME,OBJECT_ID,EPOCH,MEAN_MOTION,ECCENTRICITY,INCLINATION,RA_OF_ASC_NODE,ARG_OF_PERICENTER,MEAN_ANOMALY,EPHEMERIS_TYPE,CLASSIFICATION_TYPE,NORAD_CAT_ID,ELEMENT_SET_NO,REV_AT_EPOCH,BSTAR,MEAN_MOTION_DOT,MEAN_MOTION_DDOT
COSMOS 2058,1990-010A,2026-06-18T11:01:01.487136,15.12022705,.00090315,82.4688,308.1002,355.7007,4.4144,0,U,20465,999,95746,.19409477E-3,.3365E-4,0
SL-14 R/B,1990-010B,2026-06-18T10:46:57.983808,14.83646933,.00189859,82.5015,172.7596,331.9920,28.0271,0,U,20466,999,94342,.32185191E-4,.29E-5,0
SL-14 R/B,1990-018B,2026-06-18T15:09:29.685312,14.82216917,.00175201,82.5210,128.7574,117.3177,242.9824,0,U,20511,999,93753,.36317258E-4,.314E-5,0
HST,1990-037B,2026-06-18T02:54:27.573408,15.30755230,.00017668,28.4721,74.1921,152.2420,207.8270,0,U,20580,999,78871,.15694226E-3,.5032E-4,0
SL-16 R/B,1990-046B,2026-06-18T12:04:51.618144,14.15027010,.0013239,71.0000,86.1837,159.7904,200.3745,0,U,20625,999,86265,.57287848E-4,.63E-6,0
COSMOS 2084,1990-055A,2026-06-18T12:31:53.577696,15.06120674,.00056137,62.7899,351.5342,281.0237,79.0232,0,U,20663,999,95150,.12459959E-3,.1629E-4,0
SL-6 R/B(2),1990-055D,2026-06-18T13:53:04.299936,15.04006872,.00408796,62.7823,270.6419,5.3426,354.8101,0,U,20666,999,95336,.97371836E-4,.1167E-4,0
SL-8 R/B,1990-078B,2026-06-18T09:38:46.014144,14.92370364,.0350609,82.9020,160.5479,34.3823,327.9549,0,U,20775,999,82430,.56674988E-3,.201E-3,0
SL-8 R/B,1991-006B,2026-06-18T12:55:30.460800,13.77505940,.00237461,82.9425,95.0284,110.9723,61.7767,0,U,21088,999,77795,.44528646E-4,.6E-6,0
OKEAN-3,1991-039A,2026-06-18T11:14:01.527072,15.05329907,.0013955,82.5162,239.1393,353.3724,6.7316,0,U,21397,999,88019,.1632159E-3,.2368E-4,0
COSMOS 2151,1991-042A,2026-06-18T14:14:44.378880,15.00441554,.00137875,82.4960,346.3235,79.8386,280.4393,0,U,21422,999,87832,.83833406E-4,.1083E-4,0
SL-14 R/B,1991-042B,2026-06-18T07:13:10.037568,14.81903087,.00154055,82.4927,125.8512,270.8043,89.1406,0,U,21423,999,86797,.35114823E-4,.301E-5,0
ERS-1,1991-050A,2026-06-18T08:18:52.455744,14.39517965,.00307019,98.7797,190.0728,263.3862,96.3830,0,U,21574,999,83021,.69673199E-4,.172E-5,0
ARIANE 40 R/B,1991-050F,2026-06-18T08:47:48.585120,14.42957718,.00042826,98.1875,217.7375,119.1814,240.9806,0,U,21610,999,83351,.77756269E-4,.219E-5,0
INTERCOSMOS 25,1991-086A,2026-06-18T14:20:19.813056,12.12197485,.14839776,82.6052,248.9564,259.3492,83.7618,0,U,21819,999,50891,.15095276E-3,.757E-5,0
SL-8 R/B,1992-008B,2026-06-18T08:26:37.807872,13.75977264,.00339113,82.9261,192.9216,211.3603,159.2715,0,U,21876,999,72326,.1189711E-3,.131E-5,0
SL-8 R/B,1992-020B,2026-06-18T12:45:27.021600,13.75549013,.00296418,82.9305,78.8589,18.9065,154.6358,0,U,21938,999,71499,.69336446E-4,.82E-6,0
USA 81,1992-023A,2026-06-18T11:05:51.899136,14.32398511,.00027595,85.0074,73.2715,83.6176,276.5331,0,U,21949,999,10921,.46930969E-4,.147E-5,0
COSMOS 2219,1992-076A,2026-06-18T09:26:09.068064,14.14099867,.00166575,71.0580,167.5506,42.1352,318.1048,0,U,22219,999,73261,.18386837E-3,.303E-5,0
SL-16 R/B,1992-076B,2026-06-18T10:26:55.176576,14.16872867,.00146937,71.0006,336.1516,297.0200,90.8573,0,U,22220,999,73610,.14430402E-3,.242E-5,0
COSMOS 2221,1992-080A,2026-06-18T11:25:49.838592,14.96535990,.00133745,82.5029,182.5295,207.6546,152.3966,0,U,22236,999,79586,.94772927E-4,.1105E-4,0
SL-16 R/B,1992-093B,2026-06-18T08:57:20.488320,14.15460672,.00038848,71.0196,152.9014,186.2686,173.8389,0,U,22285,999,72740,-.11117974E-3,-.265E-5,0
COSMOS 2228,1992-094A,2026-06-18T13:22:59.186208,14.97590746,.00167859,82.5174,140.7300,327.5191,32.4998,0,U,22286,999,79115,.13071918E-3,.1557E-4,0
SL-16 R/B,1993-016B,2026-06-17T23:59:57.950592,14.15314648,.00101625,71.0084,4.5000,182.3697,177.7380,0,U,22566,999,71636,.13872443E-3,.223E-5,0
COSMOS 2242,1993-024A,2026-06-18T10:49:13.676736,14.96906839,.00152497,82.5179,170.3338,331.8153,28.2242,0,U,22626,999,79546,.11245464E-3,.1319E-4,0
SL-16 R/B,1993-059B,2026-06-18T09:46:44.210496,14.17248212,.00152655,70.9886,158.7303,51.9101,308.3397,0,U,22803,999,69380,-.44562383E-4,-.138E-5,0
ARIANE 40 R/B,1993-061H,2026-06-18T14:26:49.314624,14.32908421,.00103634,98.4819,236.4296,352.0025,8.0992,0,U,22830,999,70855,.63839865E-4,.131E-5,0
COSMOS 2278,1994-023A,2026-06-17T21:12:07.341984,14.14398380,.00106232,71.0548,325.4675,242.3414,117.6631,0,U,23087,999,65897,.58811458E-4,.65E-6,0
SL-16 R/B,1994-023B,2026-06-18T14:12:10.562688,14.15026139,.00026677,70.9993,218.9816,185.9404,174.1687,0,U,23088,999,66036,.12570202E-3,.196E-5,0
SL-16 R/B,1994-074B,2026-06-18T12:28:14.418048,14.79503361,.00051664,97.6990,196.1851,247.9938,277.7992,0,U,23343,999,70215,.48744011E-4,.315E-5,0
